KUIPER-00053            
1 64513U 25134P   25245.53710317  .00060767  00000+0  16247-2 0  9996
2 64513  51.8799 347.6582 0002991 348.5970  11.4949 15.37483011 12174
KUIPER-00054            
1 64514U 25134Q   25245.54470356  .00062454  00000+0  16643-2 0  9999
2 64514  51.8780 347.7033 0004802 359.4434   0.6547 15.37567526 12174
KUIPER-00055            
1 64515U 25134R   25245.51574547  .00071211  00000+0  18644-2 0  9998
2 64515  51.8783 347.5223 0002048 341.4667  18.6245 15.38061908 12174
KUIPER-00056            
1 64516U 25134S   25245.55619567  .00063325  00000+0  17114-2 0  9993
2 64516  51.8766 347.7659 0005293   0.7798 359.3196 15.37124171 12177
KUIPER-00057            
1 64517U 25134T   25245.91668981 -.00290257  00000+0 -13118-1 0  9995
2 64517  51.8766 347.3176 0012639   4.6412 261.1809 15.21672570  4240
KUIPER-00058            
1 64518U 25134U   25245.91668981 -.00474736  00000+0 -14777-1 0  9994
2 64518  51.8738 346.2177 0007077   8.1843  92.2612 15.34676981  5493
KUIPER-00059            
1 64519U 25134V   25245.51911117  .00066698  00000+0  17466-2 0  9994
2 64519  51.8786 347.5402 0002707 350.7711   9.3226 15.38083658 12177
KUIPER-00060            
1 64520U 25134W   25245.59221026  .00035658  00000+0  94594-3 0  9997
2 64520  51.8793 347.2815 0003409 341.2517  18.8344 15.37966061 12174
